ALOS (DAICHI)           
1 28931U 06002A   25351.73419158  .00001110  00000+0  19545-3 0  9994
2 28931  98.1098 303.1864 0001361 113.5739 246.5610 14.69501788 61443
H-2A R/B                
1 28932U 06002B   25352.40083239  .00009642  00000+0  50581-3 0  9990
2 28932  98.2318 127.6119 0054646 157.2487 203.1182 15.14682599 82123
RESURS-DK 1             
1 29228U 06021A   25352.58530893  .00002088  00000+0  12682-3 0  9999
2 29228  69.9338  86.7315 0006912 254.7402 105.2999 15.12192765 75269
CZ-4B R/B               
1 29507U 06046C   25352.57794111  .00003842  00000+0  20122-3 0  9997
2 29507  97.5730  32.7010 0033768 185.9934 174.0899 15.15929694 47757
CZ-2C R/B               
1 31114U 07010B   25352.56627308  .00000107  00000+0  67862-4 0  9992
2 31114  98.3976 104.9238 0059323 169.0363 191.2123 14.20212182968208
COSMO-SKYMED 1          
1 31598U 07023A   25352.60810851  .00003410  00000+0  31082-3 0  9998
2 31598  97.8835 178.0456 0001574  86.8865 273.2535 14.95810351  2788
COSMOS 2428             
1 31792U 07029A   25352.47299113  .00000147  00000+0  10465-3 0  9993
2 31792  70.9365  13.8422 0003994  15.3964 344.7278 14.12891781952628
SL-16 R/B               
1 31793U 07029B   25352.41676458  .00000137  00000+0  95867-4 0  9998
2 31793  70.9756 343.2237 0001965 261.7919 250.2850 14.14815440953875
KORONAS-FOTON           
1 33504U 09003A   25352.46775716  .00008582  00000+0  20450-3 0  9993
2 33504  82.4304   0.1700 0013417  90.5578 269.7206 15.41314051933222
CZ-2C R/B               
1 37731U 11030B   25352.48209590  .00001160  00000+0  15365-3 0  9990
2 37731  97.8421 306.4618 0051352 254.3977 220.0984 14.80919815778075
H-2A R/B                
1 38341U 12025E   25352.46473300  .00001823  00000+0  17210-3 0  9990
2 38341  98.4605 308.1364 0044101 217.2536 142.5621 14.94484096736088
SHIJIAN-16 (SJ-16)      
1 39358U 13057A   25352.63721987  .00000661  00000+0  67912-4 0  9995
2 39358  74.9727 338.4963 0017770 305.9753  53.9786 14.91998313659417
