CCSDS_OMM_VERS = 2.0
CREATION_DATE  = 
ORIGINATOR     = 

OBJECT_NAME    = ALOS (DAICHI)
OBJECT_ID      = 2006-002A
CENTER_NAME    = EARTH
REF_FRAME      = TEME
TIME_SYSTEM    = UTC
MEAN_ELEMENT_THEORY = SGP/SGP4

EPOCH          = 2025-12-17T17:37:14.152512
MEAN_MOTION    = 14.69501788
ECCENTRICITY   = .00013612
INCLINATION    = 98.1098
RA_OF_ASC_NODE = 303.1864
ARG_OF_PERICENTER = 113.5739
MEAN_ANOMALY   = 246.5610

EPHEMERIS_TYPE = 0
CLASSIFICATION_TYPE = U
NORAD_CAT_ID   = 28931
ELEMENT_SET_NO = 999
REV_AT_EPOCH   = 6144
BSTAR          = .19545051E-3
MEAN_MOTION_DOT = .111E-4
MEAN_MOTION_DDOT = 0

CCSDS_OMM_VERS = 2.0
CREATION_DATE  = 
ORIGINATOR     = 

OBJECT_NAME    = H-2A R/B
OBJECT_ID      = 2006-002B
CENTER_NAME    = EARTH
REF_FRAME      = TEME
TIME_SYSTEM    = UTC
MEAN_ELEMENT_THEORY = SGP/SGP4

EPOCH          = 2025-12-18T09:37:11.918496
MEAN_MOTION    = 15.14682599
ECCENTRICITY   = .00546466
INCLINATION    = 98.2318
RA_OF_ASC_NODE = 127.6119
ARG_OF_PERICENTER = 157.2487
MEAN_ANOMALY   = 203.1182

EPHEMERIS_TYPE = 0
CLASSIFICATION_TYPE = U
NORAD_CAT_ID   = 28932
ELEMENT_SET_NO = 999
REV_AT_EPOCH   = 8212
BSTAR          = .50580561E-3
MEAN_MOTION_DOT = .9642E-4
MEAN_MOTION_DDOT = 0

CCSDS_OMM_VERS = 2.0
CREATION_DATE  = 
ORIGINATOR     = 

OBJECT_NAME    = RESURS-DK 1
OBJECT_ID      = 2006-021A
CENTER_NAME    = EARTH
REF_FRAME      = TEME
TIME_SYSTEM    = UTC
MEAN_ELEMENT_THEORY = SGP/SGP4

EPOCH          = 2025-12-18T14:02:50.691552
MEAN_MOTION    = 15.12192765
ECCENTRICITY   = .00069129
INCLINATION    = 69.9338
RA_OF_ASC_NODE = 86.7315
ARG_OF_PERICENTER = 254.7402
MEAN_ANOMALY   = 105.2999

EPHEMERIS_TYPE = 0
CLASSIFICATION_TYPE = U
NORAD_CAT_ID   = 29228
ELEMENT_SET_NO = 999
REV_AT_EPOCH   = 7526
BSTAR          = .12681973E-3
MEAN_MOTION_DOT = .2088E-4
MEAN_MOTION_DDOT = 0

CCSDS_OMM_VERS = 2.0
CREATION_DATE  = 
ORIGINATOR     = 

OBJECT_NAME    = CZ-4B R/B
OBJECT_ID      = 2006-046C
CENTER_NAME    = EARTH
REF_FRAME      = TEME
TIME_SYSTEM    = UTC
MEAN_ELEMENT_THEORY = SGP/SGP4

EPOCH          = 2025-12-18T13:52:14.111904
MEAN_MOTION    = 15.15929694
ECCENTRICITY   = .00337689
INCLINATION    = 97.5730
RA_OF_ASC_NODE = 32.7010
ARG_OF_PERICENTER = 185.9934
MEAN_ANOMALY   = 174.0899

EPHEMERIS_TYPE = 0
CLASSIFICATION_TYPE = U
NORAD_CAT_ID   = 29507
ELEMENT_SET_NO = 999
REV_AT_EPOCH   = 4775
BSTAR          = .20122492E-3
MEAN_MOTION_DOT = .3842E-4
MEAN_MOTION_DDOT = 0

CCSDS_OMM_VERS = 2.0
CREATION_DATE  = 
ORIGINATOR     = 

OBJECT_NAME    = CZ-2C R/B
OBJECT_ID      = 2007-010B
CENTER_NAME    = EARTH
REF_FRAME      = TEME
TIME_SYSTEM    = UTC
MEAN_ELEMENT_THEORY = SGP/SGP4

EPOCH          = 2025-12-18T13:35:25.994112
MEAN_MOTION    = 14.20212182
ECCENTRICITY   = .0059323
INCLINATION    = 98.3976
RA_OF_ASC_NODE = 104.9238
ARG_OF_PERICENTER = 169.0363
MEAN_ANOMALY   = 191.2123

EPHEMERIS_TYPE = 0
CLASSIFICATION_TYPE = U
NORAD_CAT_ID   = 31114
ELEMENT_SET_NO = 999
REV_AT_EPOCH   = 96820
BSTAR          = .67862103E-4
MEAN_MOTION_DOT = .107E-5
MEAN_MOTION_DDOT = 0

CCSDS_OMM_VERS = 2.0
CREATION_DATE  = 
ORIGINATOR     = 

OBJECT_NAME    = COSMO-SKYMED 1
OBJECT_ID      = 2007-023A
CENTER_NAME    = EARTH
REF_FRAME      = TEME
TIME_SYSTEM    = UTC
MEAN_ELEMENT_THEORY = SGP/SGP4

EPOCH          = 2025-12-18T14:35:40.575264
MEAN_MOTION    = 14.95810351
ECCENTRICITY   = .00015749
INCLINATION    = 97.8835
RA_OF_ASC_NODE = 178.0456
ARG_OF_PERICENTER = 86.8865
MEAN_ANOMALY   = 273.2535

EPHEMERIS_TYPE = 0
CLASSIFICATION_TYPE = U
NORAD_CAT_ID   = 31598
ELEMENT_SET_NO = 999
REV_AT_EPOCH   = 278
BSTAR          = .31082283E-3
MEAN_MOTION_DOT = .341E-4
MEAN_MOTION_DDOT = 0

CCSDS_OMM_VERS = 2.0
CREATION_DATE  = 
ORIGINATOR     = 

OBJECT_NAME    = COSMOS 2428
OBJECT_ID      = 2007-029A
CENTER_NAME    = EARTH
REF_FRAME      = TEME
TIME_SYSTEM    = UTC
MEAN_ELEMENT_THEORY = SGP/SGP4

EPOCH          = 2025-12-18T11:21:06.433632
MEAN_MOTION    = 14.12891781
ECCENTRICITY   = .00039943
INCLINATION    = 70.9365
RA_OF_ASC_NODE = 13.8422
ARG_OF_PERICENTER = 15.3964
MEAN_ANOMALY   = 344.7278

EPHEMERIS_TYPE = 0
CLASSIFICATION_TYPE = U
NORAD_CAT_ID   = 31792
ELEMENT_SET_NO = 999
REV_AT_EPOCH   = 95262
BSTAR          = .10464669E-3
MEAN_MOTION_DOT = .147E-5
MEAN_MOTION_DDOT = 0

CCSDS_OMM_VERS = 2.0
CREATION_DATE  = 
ORIGINATOR     = 

OBJECT_NAME    = SL-16 R/B
OBJECT_ID      = 2007-029B
CENTER_NAME    = EARTH
REF_FRAME      = TEME
TIME_SYSTEM    = UTC
MEAN_ELEMENT_THEORY = SGP/SGP4

EPOCH          = 2025-12-18T10:00:08.459712
MEAN_MOTION    = 14.14815440
ECCENTRICITY   = .00019656
INCLINATION    = 70.9756
RA_OF_ASC_NODE = 343.2237
ARG_OF_PERICENTER = 261.7919
MEAN_ANOMALY   = 250.2850

EPHEMERIS_TYPE = 0
CLASSIFICATION_TYPE = U
NORAD_CAT_ID   = 31793
ELEMENT_SET_NO = 999
REV_AT_EPOCH   = 95387
BSTAR          = .95867422E-4
MEAN_MOTION_DOT = .137E-5
MEAN_MOTION_DDOT = 0

CCSDS_OMM_VERS = 2.0
CREATION_DATE  = 
ORIGINATOR     = 

OBJECT_NAME    = KORONAS-FOTON
OBJECT_ID      = 2009-003A
CENTER_NAME    = EARTH
REF_FRAME      = TEME
TIME_SYSTEM    = UTC
MEAN_ELEMENT_THEORY = SGP/SGP4

EPOCH          = 2025-12-18T11:13:34.218624
MEAN_MOTION    = 15.41314051
ECCENTRICITY   = .00134179
INCLINATION    = 82.4304
RA_OF_ASC_NODE = 0.1700
ARG_OF_PERICENTER = 90.5578
MEAN_ANOMALY   = 269.7206

EPHEMERIS_TYPE = 0
CLASSIFICATION_TYPE = U
NORAD_CAT_ID   = 33504
ELEMENT_SET_NO = 999
REV_AT_EPOCH   = 93322
BSTAR          = .20449604E-3
MEAN_MOTION_DOT = .8582E-4
MEAN_MOTION_DDOT = 0

CCSDS_OMM_VERS = 2.0
CREATION_DATE  = 
ORIGINATOR     = 

OBJECT_NAME    = CZ-2C R/B
OBJECT_ID      = 2011-030B
CENTER_NAME    = EARTH
REF_FRAME      = TEME
TIME_SYSTEM    = UTC
MEAN_ELEMENT_THEORY = SGP/SGP4

EPOCH          = 2025-12-18T11:34:13.085760
MEAN_MOTION    = 14.80919815
ECCENTRICITY   = .00513528
INCLINATION    = 97.8421
RA_OF_ASC_NODE = 306.4618
ARG_OF_PERICENTER = 254.3977
MEAN_ANOMALY   = 220.0984

EPHEMERIS_TYPE = 0
CLASSIFICATION_TYPE = U
NORAD_CAT_ID   = 37731
ELEMENT_SET_NO = 999
REV_AT_EPOCH   = 77807
BSTAR          = .15365456E-3
MEAN_MOTION_DOT = .116E-4
MEAN_MOTION_DDOT = 0

CCSDS_OMM_VERS = 2.0
CREATION_DATE  = 
ORIGINATOR     = 

OBJECT_NAME    = H-2A R/B
OBJECT_ID      = 2012-025E
CENTER_NAME    = EARTH
REF_FRAME      = TEME
TIME_SYSTEM    = UTC
MEAN_ELEMENT_THEORY = SGP/SGP4

EPOCH          = 2025-12-18T11:09:12.931200
MEAN_MOTION    = 14.94484096
ECCENTRICITY   = .00441013
INCLINATION    = 98.4605
RA_OF_ASC_NODE = 308.1364
ARG_OF_PERICENTER = 217.2536
MEAN_ANOMALY   = 142.5621

EPHEMERIS_TYPE = 0
CLASSIFICATION_TYPE = U
NORAD_CAT_ID   = 38341
ELEMENT_SET_NO = 999
REV_AT_EPOCH   = 73608
BSTAR          = .17209501E-3
MEAN_MOTION_DOT = .1823E-4
MEAN_MOTION_DDOT = 0

CCSDS_OMM_VERS = 2.0
CREATION_DATE  = 
ORIGINATOR     = 

OBJECT_NAME    = SHIJIAN-16 (SJ-16)
OBJECT_ID      = 2013-057A
CENTER_NAME    = EARTH
REF_FRAME      = TEME
TIME_SYSTEM    = UTC
MEAN_ELEMENT_THEORY = SGP/SGP4

EPOCH          = 2025-12-18T15:17:35.796768
MEAN_MOTION    = 14.91998313
ECCENTRICITY   = .00177708
INCLINATION    = 74.9727
RA_OF_ASC_NODE = 338.4963
ARG_OF_PERICENTER = 305.9753
MEAN_ANOMALY   = 53.9786

EPHEMERIS_TYPE = 0
CLASSIFICATION_TYPE = U
NORAD_CAT_ID   = 39358
ELEMENT_SET_NO = 999
REV_AT_EPOCH   = 65941
BSTAR          = .67912271E-4
MEAN_MOTION_DOT = .661E-5
MEAN_MOTION_DDOT = 0

